STARLINK-2107           
1 47723U 21017B   25259.51437577 -.00001547  00000+0 -84977-4 0  9993
2 47723  53.0534 193.5205 0002200  83.1898 276.9341 15.06382541252614
STARLINK-2116           
1 47724U 21017C   25259.55123039  .00000849  00000+0  75878-4 0  9995
2 47724  53.0530 193.3558 0001422  95.5795 264.5356 15.06397479252589
STARLINK-2131           
1 47728U 21017G   25259.27938401  .00000822  00000+0  74058-4 0  9995
2 47728  53.0536 264.5807 0001061  93.6240 266.4870 15.06402080251632
STARLINK-2140           
1 47730U 21017J   25258.37311385  .00001469  00000+0  11746-3 0  9996
2 47730  53.0546 283.6577 0001109  82.9414 277.1701 15.06404270251230
STARLINK-2141           
1 47731U 21017K   25259.57334482  .00002110  00000+0  16054-3 0  9994
2 47731  53.0545 273.2590 0001375  87.7656 272.3490 15.06397681251493
STARLINK-2143           
1 47733U 21017M   25258.36711364  .00001276  00000+0  10449-3 0  9994
2 47733  53.0520 288.6708 0000940  70.2753 289.8338 15.06406884251211
STARLINK-2144           
1 47734U 21017N   25259.44801339  .00002987  00000+0  21927-3 0  9990
2 47734  53.0533 273.8180 0001260  81.8625 278.2507 15.06405848251486
STARLINK-2147           
1 47736U 21017Q   25259.41576335  .00001223  00000+0  10095-3 0  9990
2 47736  53.0540 263.9654 0001143  81.3737 278.7381 15.06398365251650
STARLINK-2150           
1 47739U 21017T   25259.47796517  .00006610  00000+0  46213-3 0  9991
2 47739  53.0490 288.6879 0001748  89.2363 270.8826 15.06408663251316
STARLINK-2156           
1 47742U 21017W   25259.41944704  .00001020  00000+0  87340-4 0  9999
2 47742  53.0542 263.9514 0001287  85.0885 275.0251 15.06404132251654
STARLINK-2159           
1 47745U 21017Z   25259.31900461  .00000901  00000+0  79347-4 0  9998
2 47745  53.0528 274.4018 0001261  82.3675 277.7457 15.06410353251442
STARLINK-2160           
1 47746U 21017AA  25259.31163764  .00000784  00000+0  71522-4 0  9992
2 47746  53.0538 274.4329 0001211  85.0355 275.0773 15.06401904251432
STARLINK-2161           
1 47747U 21017AB  25259.44155745  .00001459  00000+0  11677-3 0  9991
2 47747  53.0539 263.8513 0000880  87.9781 272.1309 15.06410379251637
STARLINK-2162           
1 47748U 21017AC  25259.43419158  .00001027  00000+0  87819-4 0  9995
2 47748  53.0534 263.8831 0001519  85.1197 274.9966 15.06402579251606
STARLINK-2163           
1 47749U 21017AD  25259.44893756 -.00000360  00000+0 -53100-5 0  9995
2 47749  53.0525 263.8163 0000887  58.6793 301.4282 15.06399086251604
STARLINK-2164           
1 47750U 21017AE  25259.42682249  .00002789  00000+0  20599-3 0  9997
2 47750  53.0529 263.9139 0001266  80.9916 279.1217 15.06408752251601
