[{"OBJECT_NAME":"STARLINK-2107","OBJECT_ID":"2021-017B","EPOCH":"2025-09-16T12:20:42.066528","MEAN_MOTION":15.06382541,"ECCENTRICITY":0.00022003,"INCLINATION":53.0534,"RA_OF_ASC_NODE":193.5205,"ARG_OF_PERICENTER":83.1898,"MEAN_ANOMALY":276.9341,"EPHEMERIS_TYPE":0,"CLASSIFICATION_TYPE":"U","NORAD_CAT_ID":47723,"ELEMENT_SET_NO":999,"REV_AT_EPOCH":25261,"BSTAR":-8.4976814e-5,"MEAN_MOTION_DOT":-1.547e-5,"MEAN_MOTION_DDOT":0},{"OBJECT_NAME":"STARLINK-2116","OBJECT_ID":"2021-017C","EPOCH":"2025-09-16T13:13:46.305696","MEAN_MOTION":15.06397479,"ECCENTRICITY":0.0001422,"INCLINATION":53.053,"RA_OF_ASC_NODE":193.3558,"ARG_OF_PERICENTER":95.5795,"MEAN_ANOMALY":264.5356,"EPHEMERIS_TYPE":0,"CLASSIFICATION_TYPE":"U","NORAD_CAT_ID":47724,"ELEMENT_SET_NO":999,"REV_AT_EPOCH":25258,"BSTAR":7.5877525e-5,"MEAN_MOTION_DOT":8.49e-6,"MEAN_MOTION_DDOT":0},{"OBJECT_NAME":"STARLINK-2131","OBJECT_ID":"2021-017G","EPOCH":"2025-09-16T06:42:18.778464","MEAN_MOTION":15.0640208,"ECCENTRICITY":0.00010613,"INCLINATION":53.0536,"RA_OF_ASC_NODE":264.5807,"ARG_OF_PERICENTER":93.624,"MEAN_ANOMALY":266.487,"EPHEMERIS_TYPE":0,"CLASSIFICATION_TYPE":"U","NORAD_CAT_ID":47728,"ELEMENT_SET_NO":999,"REV_AT_EPOCH":25163,"BSTAR":7.4057602e-5,"MEAN_MOTION_DOT":8.22e-6,"MEAN_MOTION_DDOT":0},{"OBJECT_NAME":"STARLINK-2140","OBJECT_ID":"2021-017J","EPOCH":"2025-09-15T08:57:17.036640","MEAN_MOTION":15.0640427,"ECCENTRICITY":0.00011094,"INCLINATION":53.0546,"RA_OF_ASC_NODE":283.6577,"ARG_OF_PERICENTER":82.9414,"MEAN_ANOMALY":277.1701,"EPHEMERIS_TYPE":0,"CLASSIFICATION_TYPE":"U","NORAD_CAT_ID":47730,"ELEMENT_SET_NO":999,"REV_AT_EPOCH":25123,"BSTAR":0.0001174551,"MEAN_MOTION_DOT":1.469e-5,"MEAN_MOTION_DDOT":0},{"OBJECT_NAME":"STARLINK-2141","OBJECT_ID":"2021-017K","EPOCH":"2025-09-16T13:45:36.992448","MEAN_MOTION":15.06397681,"ECCENTRICITY":0.00013756,"INCLINATION":53.0545,"RA_OF_ASC_NODE":273.259,"ARG_OF_PERICENTER":87.7656,"MEAN_ANOMALY":272.349,"EPHEMERIS_TYPE":0,"CLASSIFICATION_TYPE":"U","NORAD_CAT_ID":47731,"ELEMENT_SET_NO":999,"REV_AT_EPOCH":25149,"BSTAR":0.00016054053,"MEAN_MOTION_DOT":2.11e-5,"MEAN_MOTION_DDOT":0},{"OBJECT_NAME":"STARLINK-2143","OBJECT_ID":"2021-017M","EPOCH":"2025-09-15T08:48:38.618496","MEAN_MOTION":15.06406884,"ECCENTRICITY":9.405e-5,"INCLINATION":53.052,"RA_OF_ASC_NODE":288.6708,"ARG_OF_PERICENTER":70.2753,"MEAN_ANOMALY":289.8338,"EPHEMERIS_TYPE":0,"CLASSIFICATION_TYPE":"U","NORAD_CAT_ID":47733,"ELEMENT_SET_NO":999,"REV_AT_EPOCH":25121,"BSTAR":0.00010448954,"MEAN_MOTION_DOT":1.276e-5,"MEAN_MOTION_DDOT":0},{"OBJECT_NAME":"STARLINK-2144","OBJECT_ID":"2021-017N","EPOCH":"2025-09-16T10:45:08.356896","MEAN_MOTION":15.06405848,"ECCENTRICITY":0.00012609,"INCLINATION":53.0533,"RA_OF_ASC_NODE":273.818,"ARG_OF_PERICENTER":81.8625,"MEAN_ANOMALY":278.2507,"EPHEMERIS_TYPE":0,"CLASSIFICATION_TYPE":"U","NORAD_CAT_ID":47734,"ELEMENT_SET_NO":999,"REV_AT_EPOCH":25148,"BSTAR":0.0002192684,"MEAN_MOTION_DOT":2.987e-5,"MEAN_MOTION_DDOT":0},{"OBJECT_NAME":"STARLINK-2147","OBJECT_ID":"2021-017Q","EPOCH":"2025-09-16T09:58:41.953440","MEAN_MOTION":15.06398365,"ECCENTRICITY":0.00011437,"INCLINATION":53.054,"RA_OF_ASC_NODE":263.9654,"ARG_OF_PERICENTER":81.3737,"MEAN_ANOMALY":278.7381,"EPHEMERIS_TYPE":0,"CLASSIFICATION_TYPE":"U","NORAD_CAT_ID":47736,"ELEMENT_SET_NO":999,"REV_AT_EPOCH":25165,"BSTAR":0.00010094827,"MEAN_MOTION_DOT":1.223e-5,"MEAN_MOTION_DDOT":0},{"OBJECT_NAME":"STARLINK-2150","OBJECT_ID":"2021-017T","EPOCH":"2025-09-16T11:28:16.190688","MEAN_MOTION":15.06408663,"ECCENTRICITY":0.00017486,"INCLINATION":53.049,"RA_OF_ASC_NODE":288.6879,"ARG_OF_PERICENTER":89.2363,"MEAN_ANOMALY":270.8826,"EPHEMERIS_TYPE":0,"CLASSIFICATION_TYPE":"U","NORAD_CAT_ID":47739,"ELEMENT_SET_NO":999,"REV_AT_EPOCH":25131,"BSTAR":0.00046213483,"MEAN_MOTION_DOT":6.61e-5,"MEAN_MOTION_DDOT":0},{"OBJECT_NAME":"STARLINK-2156","OBJECT_ID":"2021-017W","EPOCH":"2025-09-16T10:04:00.224256","MEAN_MOTION":15.06404132,"ECCENTRICITY":0.00012878,"INCLINATION":53.0542,"RA_OF_ASC_NODE":263.9514,"ARG_OF_PERICENTER":85.0885,"MEAN_ANOMALY":275.0251,"EPHEMERIS_TYPE":0,"CLASSIFICATION_TYPE":"U","NORAD_CAT_ID":47742,"ELEMENT_SET_NO":999,"REV_AT_EPOCH":25165,"BSTAR":8.7340168e-5,"MEAN_MOTION_DOT":1.02e-5,"MEAN_MOTION_DDOT":0},{"OBJECT_NAME":"STARLINK-2159","OBJECT_ID":"2021-017Z","EPOCH":"2025-09-16T07:39:21.998304","MEAN_MOTION":15.06410353,"ECCENTRICITY":0.00012615,"INCLINATION":53.0528,"RA_OF_ASC_NODE":274.4018,"ARG_OF_PERICENTER":82.3675,"MEAN_ANOMALY":277.7457,"EPHEMERIS_TYPE":0,"CLASSIFICATION_TYPE":"U","NORAD_CAT_ID":47745,"ELEMENT_SET_NO":999,"REV_AT_EPOCH":25144,"BSTAR":7.9347087e-5,"MEAN_MOTION_DOT":9.01e-6,"MEAN_MOTION_DDOT":0},{"OBJECT_NAME":"STARLINK-2160","OBJECT_ID":"2021-017AA","EPOCH":"2025-09-16T07:28:45.492096","MEAN_MOTION":15.06401904,"ECCENTRICITY":0.00012119,"INCLINATION":53.0538,"RA_OF_ASC_NODE":274.4329,"ARG_OF_PERICENTER":85.0355,"MEAN_ANOMALY":275.0773,"EPHEMERIS_TYPE":0,"CLASSIFICATION_TYPE":"U","NORAD_CAT_ID":47746,"ELEMENT_SET_NO":999,"REV_AT_EPOCH":25143,"BSTAR":7.1522283e-5,"MEAN_MOTION_DOT":7.84e-6,"MEAN_MOTION_DDOT":0},{"OBJECT_NAME":"STARLINK-2161","OBJECT_ID":"2021-017AB","EPOCH":"2025-09-16T10:35:50.563680","MEAN_MOTION":15.06410379,"ECCENTRICITY":8.809e-5,"INCLINATION":53.0539,"RA_OF_ASC_NODE":263.8513,"ARG_OF_PERICENTER":87.9781,"MEAN_ANOMALY":272.1309,"EPHEMERIS_TYPE":0,"CLASSIFICATION_TYPE":"U","NORAD_CAT_ID":47747,"ELEMENT_SET_NO":999,"REV_AT_EPOCH":25163,"BSTAR":0.00011677457,"MEAN_MOTION_DOT":1.459e-5,"MEAN_MOTION_DDOT":0},{"OBJECT_NAME":"STARLINK-2162","OBJECT_ID":"2021-017AC","EPOCH":"2025-09-16T10:25:14.152512","MEAN_MOTION":15.06402579,"ECCENTRICITY":0.00015191,"INCLINATION":53.0534,"RA_OF_ASC_NODE":263.8831,"ARG_OF_PERICENTER":85.1197,"MEAN_ANOMALY":274.9966,"EPHEMERIS_TYPE":0,"CLASSIFICATION_TYPE":"U","NORAD_CAT_ID":47748,"ELEMENT_SET_NO":999,"REV_AT_EPOCH":25160,"BSTAR":8.7818846e-5,"MEAN_MOTION_DOT":1.027e-5,"MEAN_MOTION_DDOT":0},{"OBJECT_NAME":"STARLINK-2163","OBJECT_ID":"2021-017AD","EPOCH":"2025-09-16T10:46:28.205184","MEAN_MOTION":15.06399086,"ECCENTRICITY":8.875e-5,"INCLINATION":53.0525,"RA_OF_ASC_NODE":263.8163,"ARG_OF_PERICENTER":58.6793,"MEAN_ANOMALY":301.4282,"EPHEMERIS_TYPE":0,"CLASSIFICATION_TYPE":"U","NORAD_CAT_ID":47749,"ELEMENT_SET_NO":999,"REV_AT_EPOCH":25160,"BSTAR":-5.309959e-6,"MEAN_MOTION_DOT":-3.6e-6,"MEAN_MOTION_DDOT":0},{"OBJECT_NAME":"STARLINK-2164","OBJECT_ID":"2021-017AE","EPOCH":"2025-09-16T10:14:37.463136","MEAN_MOTION":15.06408752,"ECCENTRICITY":0.00012669,"INCLINATION":53.0529,"RA_OF_ASC_NODE":263.9139,"ARG_OF_PERICENTER":80.9916,"MEAN_ANOMALY":279.1217,"EPHEMERIS_TYPE":0,"CLASSIFICATION_TYPE":"U","NORAD_CAT_ID":47750,"ELEMENT_SET_NO":999,"REV_AT_EPOCH":25160,"BSTAR":0.00020599495,"MEAN_MOTION_DOT":2.789e-5,"MEAN_MOTION_DDOT":0}]
